IRIDIUM 171             
1 43929U 19002H   23324.72825230  .00000268  00000+0  88661-4 0  9990
2 43929  86.4011  26.3995 0002300  92.9032 267.2427 14.34216190254308
IRIDIUM 170             
1 43930U 19002J   23324.91938027  .00000824  00000+0  12676-3 0  9992
2 43930  86.6130  26.1714 0002410  97.8072 262.3419 14.72247777261066
IRIDIUM 167             
1 43931U 19002K   23324.72188730  .00000261  00000+0  86156-4 0  9990
2 43931  86.4001  26.2141 0002274  94.7004 265.4452 14.34218805254304
IRIDIUM 181             
1 56726U 23068S   23324.84038348  .00000410  00000+0  11520-3 0  9993
2 56726  86.8634  69.7355 0003241  96.0462 264.1109 14.43580792 26931
IRIDIUM 177             
1 56727U 23068T   23324.79536874  .00001513  00000+0  19569-3 0  9991
2 56727  86.1996  54.7598 0002136  92.7127 267.4338 14.80231249 27406
IRIDIUM 174             
1 56728U 23068U   23324.78992287  .00001504  00000+0  19444-3 0  9997
2 56728  86.2004  54.8492 0002017  99.3932 260.7517 14.80235671 27405
IRIDIUM 178             
1 56729U 23068V   23324.78459453  .00001480  00000+0  19137-3 0  9993
2 56729  86.5795  62.3902 0002129  91.7046 268.4419 14.80237458 27403
IRIDIUM 179             
1 56730U 23068W   23324.77914311  .00001508  00000+0  19505-3 0  9993
2 56730  86.6804  63.8893 0001942 101.0498 259.0942 14.80240347 27408
